{
  "type": "FeatureCollection",
  "features": [
    {
      "type": "Feature",
      "properties": {
        "norad_id": 40545,
        "name": "GSAT0204 (GALILEO 8)",
        "group": "gnss",
        "lat": -38.04524898260811,
        "lon": -43.768536108816605,
        "alt_km": 23215.32061857269,
        "timestamp": "2025-12-02T07:10:09.356784+00:00",
        "meta_object_name": "GSAT0204 (GALILEO 8)",
        "meta_object_id": "2015-017B",
        "meta_epoch": "2025-12-01T04:52:01.322976",
        "meta_mean_motion": 1.70475428,
        "meta_eccentricity": 0.0006258,
        "meta_inclination": 56.8545,
        "meta_ra_of_asc_node": 347.0126,
        "meta_arg_of_pericenter": 260.1832,
        "meta_mean_anomaly": 99.7883,
        "meta_ephemeris_type": 0,
        "meta_classification_type": "U",
        "meta_norad_cat_id": 40545,
        "meta_element_set_no": 999,
        "meta_rev_at_epoch": 2887,
        "meta_bstar": 0,
        "meta_mean_motion_dot": -5.9e-07,
        "meta_mean_motion_ddot": 0,
        "tle_line1": "1 40545U 15017B   25335.20279309 -.00000059  00000+0  00000+0 0  9995",
        "tle_line2": "2 40545  56.8545 347.0126 0006258 260.1832  99.7883  1.70475428 28876"
      },
      "geometry": {
        "type": "Point",
        "coordinates": [
          -43.768536108816605,
          -38.04524898260811
        ]
      }
    },
    {
      "type": "Feature",
      "properties": {
        "norad_id": 40730,
        "name": "GPS BIIF-10 (PRN 08)",
        "group": "gnss",
        "lat": 10.859389110986362,
        "lon": -76.85275212312354,
        "alt_km": 19895.739906935043,
        "timestamp": "2025-12-02T07:10:09.356797+00:00",
        "meta_object_name": "GPS BIIF-10 (PRN 08)",
        "meta_object_id": "2015-033A",
        "meta_epoch": "2025-12-01T06:48:01.246464",
        "meta_mean_motion": 2.00566025,
        "meta_eccentricity": 0.01102431,
        "meta_inclination": 54.1407,
        "meta_ra_of_asc_node": 275.2444,
        "meta_arg_of_pericenter": 26.5275,
        "meta_mean_anomaly": 334.0308,
        "meta_ephemeris_type": 0,
        "meta_classification_type": "U",
        "meta_norad_cat_id": 40730,
        "meta_element_set_no": 999,
        "meta_rev_at_epoch": 7602,
        "meta_bstar": 0,
        "meta_mean_motion_dot": -3.9e-07,
        "meta_mean_motion_ddot": 0,
        "tle_line1": "1 40730U 15033A   25335.28334776 -.00000039  00000+0  00000+0 0  9995",
        "tle_line2": "2 40730  54.1407 275.2444 0110243  26.5275 334.0308  2.00566025 76025"
      },
      "geometry": {
        "type": "Point",
        "coordinates": [
          -76.85275212312354,
          10.859389110986362
        ]
      }
    },
    {
      "type": "Feature",
      "properties": {
        "norad_id": 40748,
        "name": "BEIDOU-3S M2S (C58)",
        "group": "gnss",
        "lat": 19.88690070231049,
        "lon": -36.54457383749047,
        "alt_km": 21541.952964672477,
        "timestamp": "2025-12-02T07:10:09.356808+00:00",
        "meta_object_name": "BEIDOU-3S M2S (C58)",
        "meta_object_id": "2015-037A",
        "meta_epoch": "2025-12-01T04:31:01.292160",
        "meta_mean_motion": 1.86229002,
        "meta_eccentricity": 0.0012493,
        "meta_inclination": 55.0491,
        "meta_ra_of_asc_node": 308.8604,
        "meta_arg_of_pericenter": 267.0141,
        "meta_mean_anomaly": 92.8367,
        "meta_ephemeris_type": 0,
        "meta_classification_type": "U",
        "meta_norad_cat_id": 40748,
        "meta_element_set_no": 999,
        "meta_rev_at_epoch": 7043,
        "meta_bstar": 0,
        "meta_mean_motion_dot": -5.6e-07,
        "meta_mean_motion_ddot": 0,
        "tle_line1": "1 40748U 15037A   25335.18820940 -.00000056  00000+0  00000+0 0  9999",
        "tle_line2": "2 40748  55.0491 308.8604 0012493 267.0141  92.8367  1.86229002 70437"
      },
      "geometry": {
        "type": "Point",
        "coordinates": [
          -36.54457383749047,
          19.88690070231049
        ]
      }
    },
    {
      "type": "Feature",
      "properties": {
        "norad_id": 40749,
        "name": "BEIDOU-3S M1S (C57)",
        "group": "gnss",
        "lat": -38.40144523754019,
        "lon": 162.45576826565792,
        "alt_km": 21535.63376126472,
        "timestamp": "2025-12-02T07:10:09.356820+00:00",
        "meta_object_name": "BEIDOU-3S M1S (C57)",
        "meta_object_id": "2015-037B",
        "meta_epoch": "2025-11-26T01:13:29.678016",
        "meta_mean_motion": 1.8625392,
        "meta_eccentricity": 0.00032681,
        "meta_inclination": 55.0504,
        "meta_ra_of_asc_node": 309.0266,
        "meta_arg_of_pericenter": 354.4635,
        "meta_mean_anomaly": 5.5327,
        "meta_ephemeris_type": 0,
        "meta_classification_type": "U",
        "meta_norad_cat_id": 40749,
        "meta_element_set_no": 999,
        "meta_rev_at_epoch": 7034,
        "meta_bstar": 0,
        "meta_mean_motion_dot": -4e-07,
        "meta_mean_motion_ddot": 0,
        "tle_line1": "1 40749U 15037B   25330.05103794 -.00000040  00000+0  00000+0 0  9995",
        "tle_line2": "2 40749  55.0504 309.0266 0003268 354.4635   5.5327  1.86253920 70342"
      },
      "geometry": {
        "type": "Point",
        "coordinates": [
          162.45576826565792,
          -38.40144523754019
        ]
      }
    },
    {
      "type": "Feature",
      "properties": {
        "norad_id": 40889,
        "name": "GSAT0205 (GALILEO 9)",
        "group": "gnss",
        "lat": 54.74137002926108,
        "lon": -34.58153509532817,
        "alt_km": 23206.211557161205,
        "timestamp": "2025-12-02T07:10:09.356831+00:00",
        "meta_object_name": "GSAT0205 (GALILEO 9)",
        "meta_object_id": "2015-045A",
        "meta_epoch": "2025-11-30T23:18:34.752384",
        "meta_mean_motion": 1.70472884,
        "meta_eccentricity": 0.00058923,
        "meta_inclination": 55.0077,
        "meta_ra_of_asc_node": 227.0837,
        "meta_arg_of_pericenter": 38.7902,
        "meta_mean_anomaly": 321.3287,
        "meta_ephemeris_type": 0,
        "meta_classification_type": "U",
        "meta_norad_cat_id": 40889,
        "meta_element_set_no": 999,
        "meta_rev_at_epoch": 6363,
        "meta_bstar": 0,
        "meta_mean_motion_dot": 3e-07,
        "meta_mean_motion_ddot": 0,
        "tle_line1": "1 40889U 15045A   25334.97123556  .00000030  00000+0  00000+0 0  9990",
        "tle_line2": "2 40889  55.0077 227.0837 0005892  38.7902 321.3287  1.70472884 63632"
      },
      "geometry": {
        "type": "Point",
        "coordinates": [
          -34.58153509532817,
          54.74137002926108
        ]
      }
    },
    {
      "type": "Feature",
      "properties": {
        "norad_id": 40890,
        "name": "GSAT0206 (GALILEO 10)",
        "group": "gnss",
        "lat": -32.31944141994034,
        "lon": -159.22098284195104,
        "alt_km": 23223.23882514807,
        "timestamp": "2025-12-02T07:10:09.356842+00:00",
        "meta_object_name": "GSAT0206 (GALILEO 10)",
        "meta_object_id": "2015-045B",
        "meta_epoch": "2025-11-28T20:17:33.194976",
        "meta_mean_motion": 1.70472951,
        "meta_eccentricity": 0.00035605,
        "meta_inclination": 55.0075,
        "meta_ra_of_asc_node": 227.1375,
        "meta_arg_of_pericenter": 32.1082,
        "meta_mean_anomaly": 327.9865,
        "meta_ephemeris_type": 0,
        "meta_classification_type": "U",
        "meta_norad_cat_id": 40890,
        "meta_element_set_no": 999,
        "meta_rev_at_epoch": 6362,
        "meta_bstar": 0,
        "meta_mean_motion_dot": 2.6e-07,
        "meta_mean_motion_ddot": 0,
        "tle_line1": "1 40890U 15045B   25332.84552309  .00000026  00000+0  00000+0 0  9993",
        "tle_line2": "2 40890  55.0075 227.1375 0003560  32.1082 327.9865  1.70472951 63625"
      },
      "geometry": {
        "type": "Point",
        "coordinates": [
          -159.22098284195104,
          -32.31944141994034
        ]
      }
    },
    {
      "type": "Feature",
      "properties": {
        "norad_id": 40938,
        "name": "BEIDOU-3S IGSO-2S (C56)",
        "group": "gnss",
        "lat": 10.515429384126797,
        "lon": -89.80446277171123,
        "alt_km": 36041.89688805371,
        "timestamp": "2025-12-02T07:10:09.356856+00:00",
        "meta_object_name": "BEIDOU-3S IGSO-2S (C56)",
        "meta_object_id": "2015-053A",
        "meta_epoch": "2025-11-30T14:22:32.938176",
        "meta_mean_motion": 1.00272475,
        "meta_eccentricity": 0.0061056,
        "meta_inclination": 49.5325,
        "meta_ra_of_asc_node": 261.1514,
        "meta_arg_of_pericenter": 188.8099,
        "meta_mean_anomaly": 291.5463,
        "meta_ephemeris_type": 0,
        "meta_classification_type": "U",
        "meta_norad_cat_id": 40938,
        "meta_element_set_no": 999,
        "meta_rev_at_epoch": 3736,
        "meta_bstar": 0,
        "meta_mean_motion_dot": -1.61e-06,
        "meta_mean_motion_ddot": 0,
        "tle_line1": "1 40938U 15053A   25334.59899234 -.00000161  00000+0  00000+0 0  9991",
        "tle_line2": "2 40938  49.5325 261.1514 0061056 188.8099 291.5463  1.00272475 37362"
      },
      "geometry": {
        "type": "Point",
        "coordinates": [
          -89.80446277171123,
          10.515429384126797
        ]
      }
    }
  ]
}